[{"OBJECT_NAME":"STPSAT-5","OBJECT_ID":"2018-099E","EPOCH":"2026-03-09T17:03:28.111392","MEAN_MOTION":15.12747444,"ECCENTRICITY":0.00022983,"INCLINATION":97.4221,"RA_OF_ASC_NODE":121.2038,"ARG_OF_PERICENTER":348.2431,"MEAN_ANOMALY":11.8746,"EPHEMERIS_TYPE":0,"CLASSIFICATION_TYPE":"U","NORAD_CAT_ID":43762,"ELEMENT_SET_NO":999,"REV_AT_EPOCH":39782,"BSTAR":0.00030771004,"MEAN_MOTION_DOT":5.331e-5,"MEAN_MOTION_DDOT":0},{"OBJECT_NAME":"STARLINK-6240","OBJECT_ID":"2023-088AN","EPOCH":"2026-03-09T22:00:01.999584","MEAN_MOTION":15.10951184,"ECCENTRICITY":0.00019604,"INCLINATION":43,"RA_OF_ASC_NODE":93.1348,"ARG_OF_PERICENTER":277.0874,"MEAN_ANOMALY":131.7723,"EPHEMERIS_TYPE":0,"CLASSIFICATION_TYPE":"U","NORAD_CAT_ID":57084,"ELEMENT_SET_NO":999,"REV_AT_EPOCH":577,"BSTAR":0.0035490202,"MEAN_MOTION_DOT":0.00060523,"MEAN_MOTION_DDOT":0}]
